NORAD_CAT_ID,OBJECT_NAME,OBJECT_TYPE,EPOCH,MEAN_MOTION,ECCENTRICITY,INCLINATION,RA_OF_ASC_NODE,ARG_OF_PERICENTER,MEAN_ANOMALY,BSTAR,MEAN_MOTION_DOT,MEAN_MOTION_DDOT,TLE_LINE0,TLE_LINE1,TLE_LINE2,SEMIMAJOR_AXIS,PERIOD,APOGEE,PERIGEE,DECAYED
55753.0,STARLINK-5617,PAYLOAD,2023-03-08 20:00:01,15.94682374,0.0033562,69.9999,141.6089,165.1052,249.0168,-0.0024924,-0.01007214,0.00031475,0 STARLINK-5617,1 55753U 23028N   23067.83334491 -.01007214  31475-3 -24924-2 0  9996,2 55753  69.9999 141.6089 0033562 165.1052 249.0168 15.94682374  1455,6667.337,90.3,311.578,266.825,0.0
55753.0,STARLINK-5617,PAYLOAD,2023-03-08 21:16:46,15.9516089,0.0036216,69.9957,141.4523,163.5134,196.7262,0.00043157,0.0017997,1.6332e-05,0 STARLINK-5617,1 55753U 23028N   23067.88665030  .00179970  16332-4  43157-3 0  9999,2 55753  69.9957 141.4523 0036216 163.5134 196.7262 15.95160890  1461,6666.003,90.273,312.01,263.727,0.0
55753.0,STARLINK-5617,PAYLOAD,2023-03-09 20:00:01,15.92731656,0.0023042,69.9996,138.6971,170.0446,219.5988,-0.0028881,-0.01020651,0.00031616,0 STARLINK-5617,1 55753U 23028N   23068.83334491 -.01020651  31616-3 -28881-2 0  9990,2 55753  69.9996 138.6971 0023042 170.0446 219.5988 15.92731656  1618,6672.779,90.411,310.02,279.269,0.0
55753.0,STARLINK-5617,PAYLOAD,2023-03-09 22:00:00,15.92556563,0.0020529,69.9996,138.4545,171.289,336.0012,-0.0028557,-0.00994911,0.00030105,0 STARLINK-5617,1 55753U 23028N   23068.91667824 -.00994911  30105-3 -28557-2 0  9998,2 55753  69.9996 138.4545 0020529 171.2890 336.0012 15.92556563  1307,6673.268,90.421,308.833,281.434,0.0
55753.0,STARLINK-5617,PAYLOAD,2023-03-10 06:00:00,15.91925151,0.001762,69.9999,137.4857,175.7851,81.5778,-0.0030876,-0.01035067,0.00032184,0 STARLINK-5617,1 55753U 23028N   23069.25001157 -.01035067  32184-3 -30876-2 0  9992,2 55753  69.9999 137.4857 0017620 175.7851  81.5778 15.91925151  1672,6675.033,90.457,308.659,285.137,0.0
55753.0,STARLINK-5617,PAYLOAD,2023-03-10 14:00:01,15.91267253,0.0014946,70.0,136.5187,181.4505,185.2142,-0.0031858,-0.01028169,0.00031581,0 STARLINK-5617,1 55753U 23028N   23069.58334491 -.01028169  31581-3 -31858-2 0  9994,2 55753  70.0000 136.5187 0014946 181.4505 185.2142 15.91267253  1738,6676.873,90.494,308.717,288.758,0.0
55753.0,STARLINK-5617,PAYLOAD,2023-03-10 22:00:00,15.90602597,0.0011641,69.9999,135.5517,191.2213,283.9641,-0.0032214,-0.01001048,0.00029861,0 STARLINK-5617,1 55753U 23028N   23069.91667824 -.01001048  29861-3 -32214-2 0  9992,2 55753  69.9999 135.5517 0011641 191.2213 283.9641 15.90602597  1780,6678.733,90.532,308.372,292.823,0.0
55753.0,STARLINK-5617,PAYLOAD,2023-03-11 06:00:00,15.89950792,0.0009677,70.0002,134.5862,205.4523,17.4667,-0.0033404,-0.01002367,0.00029743,0 STARLINK-5617,1 55753U 23028N   23070.25001157 -.01002367  29743-3 -33404-2 0  9998,2 55753  70.0002 134.5862 0009677 205.4523  17.4667 15.89950792  1833,6680.558,90.569,308.887,295.958,0.0
55753.0,STARLINK-5617,PAYLOAD,2023-03-11 14:00:01,15.89309387,0.0008803,69.9999,133.6212,221.1907,108.7436,-0.0035408,-0.01027833,0.00030962,0 STARLINK-5617,1 55753U 23028N   23070.58335648 -.01027833  30962-3 -35408-2 0  9995,2 55753  69.9999 133.6212 0008803 221.1907 108.7436 15.89309387  1886,6682.355,90.605,310.102,298.338,0.0
55753.0,STARLINK-5617,PAYLOAD,2023-03-11 22:00:00,15.88654173,0.0008529,69.9998,132.6573,247.7904,188.2474,-0.0036247,-0.01018179,0.00030234,0 STARLINK-5617,1 55753U 23028N   23070.91667824 -.01018179  30234-3 -36247-2 0  9993,2 55753  69.9998 132.6573 0008529 247.7904 188.2474 15.88654173  1947,6684.192,90.643,311.758,300.356,0.0
55753.0,STARLINK-5617,PAYLOAD,2023-03-12 06:00:00,15.87996916,0.0009247,69.9997,131.6942,262.0171,279.4095,-0.0037028,-0.01007405,0.00029458,0 STARLINK-5617,1 55753U 23028N   23071.25001157 -.01007405  29458-3 -37028-2 0  9996,2 55753  69.9997 131.6942 0009247 262.0171 279.4095 15.87996916  1999,6686.036,90.68,314.084,301.719,0.0
55753.0,STARLINK-5617,PAYLOAD,2023-03-12 14:00:01,15.87330977,0.0008904,70.0,130.7324,269.2201,16.8173,-0.0037346,-0.00894726,0.0,0 STARLINK-5617,1 55753U 23028N   23071.58334491 -.00894726  00000-0 -37346-2 0  9993,2 55753  70.0000 130.7324 0008904 269.2201  16.8173 15.87330977  1307,6687.906,90.718,315.726,303.816,0.0
55753.0,STARLINK-5617,PAYLOAD,2023-03-12 22:00:00,15.86699038,0.0004616,69.9998,129.7716,267.9832,121.8686,-0.0040135,-0.00925082,0.0,0 STARLINK-5617,1 55753U 23028N   23071.91667824 -.00925082  00000-0 -40135-2 0  9999,2 55753  69.9998 129.7716 0004616 267.9832 121.8686 15.86699038  1305,6689.682,90.754,314.635,308.459,0.0
55753.0,STARLINK-5617,PAYLOAD,2023-03-13 06:00:00,15.85994773,0.0003414,69.9997,128.811,271.6877,221.2279,-0.0037908,-0.00850575,0.0,0 STARLINK-5617,1 55753U 23028N   23072.25001157 -.00850575  00000-0 -37908-2 0  9996,2 55753  69.9997 128.8110 0003414 271.6877 221.2279 15.85994773  2158,6691.662,90.795,315.812,311.243,0.0
55753.0,STARLINK-5617,PAYLOAD,2023-03-13 14:00:01,15.85382853,0.000359,70.0004,127.8518,262.7706,332.3846,-0.0041892,-0.00906686,0.0,0 STARLINK-5617,1 55753U 23028N   23072.58334491 -.00906686  00000-0 -41892-2 0  9994,2 55753  70.0004 127.8518 0003590 262.7706 332.3846 15.85382853  1308,6693.384,90.83,317.652,312.846,0.0
55753.0,STARLINK-5617,PAYLOAD,2023-03-13 22:00:00,15.84730793,0.0003633,69.9999,126.893,269.7146,66.9178,-0.0043362,-0.00909151,0.0,0 STARLINK-5617,1 55753U 23028N   23072.91667824 -.00909151  00000-0 -43362-2 0  9994,2 55753  69.9999 126.8930 0003633 269.7146  66.9178 15.84730793  2250,6695.22,90.867,319.517,314.652,0.0
55753.0,STARLINK-5617,PAYLOAD,2023-03-14 14:00:01,15.83419495,0.0003526,70.0001,124.9796,266.5019,270.7368,-0.0045462,-0.00896468,0.0,0 STARLINK-5617,1 55753U 23028N   23073.58334491 -.00896468  00000-0 -45462-2 0  9998,2 55753  70.0001 124.9796 0003526 266.5019 270.7368 15.83419495  1304,6698.916,90.942,323.143,318.419,0.0
55753.0,STARLINK-5617,PAYLOAD,2023-03-14 22:00:00,15.82778286,0.0003587,70.0005,124.0234,273.9737,2.3905,-0.0047901,-0.00914437,0.0,0 STARLINK-5617,1 55753U 23028N   23073.91667824 -.00914437  00000-0 -47901-2 0  9991,2 55753  70.0005 124.0234 0003587 273.9737   2.3905 15.82778286  2416,6700.725,90.979,324.993,320.186,0.0
55753.0,STARLINK-5617,PAYLOAD,2023-03-15 14:00:01,15.81462098,0.0003567,70.0,122.1154,267.1884,205.0909,-0.0049765,-0.00895157,0.0,0 STARLINK-5617,1 55753U 23028N   23074.58334491 -.00895157  00000-0 -49765-2 0  9993,2 55753  70.0000 122.1154 0003567 267.1884 205.0909 15.81462098  1300,6704.442,91.055,328.699,323.916,0.0
55753.0,STARLINK-5617,PAYLOAD,2023-03-15 22:00:00,15.80816842,0.0003516,70.0,121.1624,263.1895,305.87,-0.0052026,-0.00906931,0.0,0 STARLINK-5617,1 55753U 23028N   23074.91667824 -.00906931  00000-0 -52026-2 0  9996,2 55753  70.0000 121.1624 0003516 263.1895 305.8700 15.80816842  2570,6706.266,91.092,330.489,325.774,0.0
55753.0,STARLINK-5617,PAYLOAD,2023-03-16 14:00:01,15.79510633,0.0003638,70.0,119.2595,270.3199,129.9572,-0.0054953,-0.00902638,0.0,0 STARLINK-5617,1 55753U 23028N   23075.58334491 -.00902638  00000-0 -54953-2 0  9992,2 55753  70.0000 119.2595 0003638 270.3199 129.9572 15.79510633  1306,6709.963,91.167,334.269,329.387,0.0
55753.0,STARLINK-5617,PAYLOAD,2023-03-16 22:00:00,15.78857493,0.0003504,70.0002,118.3091,267.4441,227.2692,-0.0056556,-0.00901768,0.0,0 STARLINK-5617,1 55753U 23028N   23075.91667824 -.00901768  00000-0 -56556-2 0  9992,2 55753  70.0002 118.3091 0003504 267.4441 227.2692 15.78857493  2738,6711.814,91.205,336.03,331.327,0.0
55753.0,STARLINK-5617,PAYLOAD,2023-03-17 14:00:01,15.77560993,0.0003666,69.9998,116.4118,269.5779,51.6553,-0.006072,-0.00912133,0.0,0 STARLINK-5617,1 55753U 23028N   23076.58334491 -.00912133  00000-0 -60720-2 0  9993,2 55753  69.9998 116.4118 0003666 269.5779  51.6553 15.77560993  1306,6715.49,91.28,339.817,334.894,0.0
55753.0,STARLINK-5617,PAYLOAD,2023-03-17 22:00:00,15.76897607,0.0003648,70.0002,115.4644,276.8119,136.5145,-0.006134,-0.00896223,0.0,0 STARLINK-5617,1 55753U 23028N   23076.91667824 -.00896223  00000-0 -61340-2 0  9999,2 55753  70.0002 115.4644 0003648 276.8119 136.5145 15.76897607  2896,6717.374,91.319,341.689,336.788,0.0
55753.0,STARLINK-5617,PAYLOAD,2023-03-18 14:00:01,15.75595927,0.0003504,70.0001,113.5724,267.666,327.4894,-0.0065284,-0.00899972,0.0,0 STARLINK-5617,1 55753U 23028N   23077.58334491 -.00899972  00000-0 -65284-2 0  9999,2 55753  70.0001 113.5724 0003504 267.6660 327.4894 15.75595927  2995,6721.073,91.394,345.293,340.583,0.0
55753.0,STARLINK-5617,PAYLOAD,2023-03-18 22:00:00,15.74944386,0.0003652,70.0003,112.6276,275.9409,48.9563,-0.0067333,-0.00901935,0.0,0 STARLINK-5617,1 55753U 23028N   23077.91667824 -.00901935  00000-0 -67333-2 0  9995,2 55753  70.0003 112.6276 0003652 275.9409  48.9563 15.74944386  1304,6722.926,91.432,347.247,342.336,0.0
55753.0,STARLINK-5617,PAYLOAD,2023-03-19 14:00:01,15.73644248,0.0003474,69.9997,110.7415,272.0756,229.9561,-0.0071751,-0.00907606,0.0,0 STARLINK-5617,1 55753U 23028N   23078.58334491 -.00907606  00000-0 -71751-2 0  9990,2 55753  69.9997 110.7415 0003474 272.0756 229.9561 15.73644248  3159,6726.629,91.507,350.831,346.157,0.0
55753.0,STARLINK-5617,PAYLOAD,2023-03-19 22:00:00,15.72986327,0.0003484,70.0001,109.7993,266.8664,322.5628,-0.0073101,-0.00899716,0.0,0 STARLINK-5617,1 55753U 23028N   23078.91667824 -.00899716  00000-0 -73101-2 0  9999,2 55753  70.0001 109.7993 0003484 266.8664 322.5628 15.72986327  1302,6728.504,91.546,352.714,348.025,0.0
55753.0,STARLINK-5617,PAYLOAD,2023-03-20 14:00:01,15.71702632,0.0003697,69.9931,107.91,276.7854,125.074,-0.0079664,-0.00925417,0.0,0 STARLINK-5617,1 55753U 23028N   23079.58334491 -.00925417  00000-0 -79664-2 0  9992,2 55753  69.9931 107.9100 0003697 276.7854 125.0740 15.71702632  3316,6732.168,91.62,356.522,351.544,0.0
